OBJECT_NAME,OBJECT_ID,EPOCH,MEAN_MOTION,ECCENTRICITY,INCLINATION,RA_OF_ASC_NODE,ARG_OF_PERICENTER,MEAN_ANOMALY,EPHEMERIS_TYPE,CLASSIFICATION_TYPE,NORAD_CAT_ID,ELEMENT_SET_NO,REV_AT_EPOCH,BSTAR,MEAN_MOTION_DOT,MEAN_MOTION_DDOT
ONEWEB-0721,2023-068R,2026-06-19T06:12:01.388160,13.22469562,.00018892,86.6766,84.8555,77.8069,282.3275,0,U,56725,999,15821,.27127079E-3,.128E-5,0
ONEWEB-0015,2024-188A,2026-06-19T01:32:33.677952,13.11414714,.00021283,87.8882,20.7193,73.1854,286.9507,0,U,61594,999,8470,-.10963185E-2,-.376E-5,0
ONEWEB-0687,2024-188B,2026-06-19T01:16:40.866528,13.17648545,.00023582,87.9126,5.5052,86.1409,273.9992,0,U,61595,999,8614,.51319474E-4,.33E-6,0
ONEWEB-0688,2024-188C,2026-06-19T05:36:41.178816,13.17649277,.00025943,87.9127,5.4690,62.6048,297.5347,0,U,61596,999,8616,-.987081E-5,.9E-7,0
ONEWEB-0689,2024-188D,2026-06-19T02:21:23.339520,13.11420706,.00020884,87.8898,20.6710,91.0087,269.1280,0,U,61597,999,8470,.67200942E-3,.251E-5,0
ONEWEB-0690,2024-188E,2026-06-19T02:36:03.971520,13.11416793,.00012336,87.8892,20.6804,75.8431,284.2834,0,U,61598,999,8488,.14343843E-2,.521E-5,0
ONEWEB-0691,2024-188F,2026-06-19T02:28:44.639616,13.11418802,.00021128,87.8904,20.5904,78.3930,281.7435,0,U,61599,999,8473,.12212798E-2,.446E-5,0
ONEWEB-0692,2024-188G,2026-06-19T06:37:46.270272,13.11413962,.00019603,87.8883,20.6688,109.8821,250.2518,0,U,61600,999,8474,.94593567E-3,.348E-5,0
ONEWEB-0693,2024-188H,2026-06-19T02:14:59.862624,13.17648596,.00012454,87.9123,5.5170,69.1032,291.0233,0,U,61601,999,8613,-.592226E-5,.11E-6,0
ONEWEB-0695,2024-188J,2026-06-19T02:23:51.426528,13.11418269,.00024228,87.8878,20.6957,98.5954,261.5449,0,U,61602,999,8471,.12687371E-2,.462E-5,0
ONEWEB-0697,2024-188K,2026-06-19T06:49:58.093824,13.11414350,.00018788,87.8883,20.6494,110.5150,249.6180,0,U,61603,999,8472,.18988497E-4,.19E-6,0
ONEWEB-0698,2024-188L,2026-06-19T00:48:38.314656,13.11416513,.00010423,87.8883,20.7133,123.1768,236.9460,0,U,61604,999,8471,.16622338E-2,.602E-5,0
ONEWEB-0699,2024-188M,2026-06-19T01:09:08.300736,13.10410498,.00016712,87.8832,35.8960,105.5608,254.5704,0,U,61605,999,8355,.74963594E-2,.2632E-4,0
ONEWEB-0700,2024-188N,2026-06-19T01:11:32.941248,13.10405520,.00018652,87.8847,35.8050,103.8469,256.2866,0,U,61606,999,8354,.63758979E-2,.224E-4,0
ONEWEB-0701,2024-188P,2026-06-19T01:35:36.383712,13.10356531,.00015284,87.8827,35.8916,112.7194,247.4095,0,U,61607,999,8355,-.35741043E-2,-.1235E-4,0
ONEWEB-0702,2024-188Q,2026-06-19T01:54:32.014944,13.11417932,.00021724,87.8902,20.6105,114.3530,245.7825,0,U,61608,999,8473,-.18762966E-2,-.652E-5,0
ONEWEB-0704,2024-188R,2026-06-19T01:18:46.478304,13.10391598,.00022188,87.8846,35.8832,110.0158,250.1208,0,U,61609,999,8353,.37228413E-2,.1313E-4,0
ONEWEB-0705,2024-188S,2026-06-19T01:25:58.138752,13.10376928,.00027129,87.8844,35.8878,95.7909,264.3528,0,U,61610,999,7570,-.94447324E-3,-.317E-5,0
ONEWEB-0706,2024-188T,2026-06-19T01:04:19.000704,13.10424045,.00028351,87.8841,35.8964,95.8752,264.2699,0,U,61611,999,8362,.65025184E-2,.2285E-4,0
ONEWEB-0707,2024-188U,2026-06-19T01:13:57.736416,13.10399270,.00021311,87.8844,35.8880,97.9362,262.2007,0,U,61612,999,8356,.58598495E-2,.2059E-4,0
ONEWEB-0708,2024-188V,2026-06-19T01:40:26.532192,13.10347602,.00024804,87.8823,35.9027,84.1142,276.0268,0,U,61613,999,8354,-.95398964E-2,-.3315E-4,0
